GLOBALSTAR M024 [-]     
1 25883U 99043A   24050.34311505 -.00000006  00000+0  20900-2 0  9993
2 25883  52.0039  32.3282 0001561  31.3474 118.2536 11.10154543 61123
GLOBALSTAR M027 [-]     
1 25884U 99043B   24050.43460701 -.00000077  00000+0 -51899-3 0  9998
2 25884  52.0205  96.4034 0020905 289.3672  70.4861 11.04367656 87798
GLOBALSTAR M054 [-]     
1 25885U 99043C   24050.42628471 -.00000053  00000+0  46031-3 0  9993
2 25885  52.0152 304.9067 0005288  63.4361 107.8622 11.39205807 63911
GLOBALSTAR M053 [-]     
1 25886U 99043D   24050.42892743 -.00000042  00000+0  78215-3 0  9996
2 25886  51.9946 225.1546 0003053   0.5097  11.1870 11.27654053 64879
GLOBALSTAR M058 [-]     
1 25907U 99049A   24050.44588628 -.00000031  00000+0  72460-3 0  9996
2 25907  51.9965 320.8657 0002931  61.9349 298.1781 11.93175506483793
GLOBALSTAR M050 [-]     
1 25908U 99049B   24050.62891303  .00000027  00000+0  12964-2 0  9990
2 25908  52.0022   4.1753 0009053 146.1330  25.8185 12.07429526 89770
GLOBALSTAR M033 [-]     
1 25909U 99049C   24050.34310834 -.00000037  00000+0  52265-3 0  9996
2 25909  51.9893 270.2171 0011768   0.9031 359.1836 12.20267445476676
GLOBALSTAR M055 [-]     
1 25910U 99049D   24050.43149893 -.00000035  00000+0  50613-3 0  9996
2 25910  52.0029 304.2559 0006431 202.9225 157.1340 12.29395653108781
